GSAT0225 (GALILEO 29)   
1 59598U 24079A   26182.78258694 -.00000014  00000+0  00000+0 0  9990
2 59598  55.1266 100.6726 0000419 302.1168 241.0834  1.70473947 13569
GSAT0227 (GALILEO 30)   
1 59600U 24079C   26183.25409528 -.00000012  00000+0  00000+0 0  9999
2 59600  55.1233 100.6575 0002280  54.9212 305.1058  1.70474094 13620
GSAT0232 (GALILEO 32)   
1 61182U 24167A   26182.31433645  .00000074  00000+0  00000+0 0  9995
2 61182  55.1822 220.9262 0006283 229.8495 129.0304  1.70474427 11113
GSAT0226 (GALILEO 31)   
1 61183U 24167B   26183.63323326  .00000075  00000+0  00000+0 0  9997
2 61183  55.1805 220.8970 0003055 233.5158 306.1382  1.70474396 11111
BEIDOU-3 M25            
1 61186U 24168B   26182.94514747 -.00000064  00000+0  00000+0 0  9992
2 61186  54.4595 301.7303 0003241 295.9359  56.4940  1.86230336 12053
BEIDOU-3 M27            
1 61187U 24168C   26183.90379370 -.00000061  00000+0  00000+0 0  9998
2 61187  54.4540 301.6798 0001165  47.0059   3.1786  1.86230358  9559
NAVSTAR 83 (USA 440)    
1 62339U 24242A   26180.81572751 -.00000094  00000+0  00000+0 0  9992
2 62339  54.8437 333.6698 0017626   4.4449   3.3802  2.00572141 11517
QZS-6 (MICHIBIKI-6)     
1 62876U 25023A   26183.87984711 -.00000223  00000+0  00000+0 0  9992
2 62876   0.0437 284.7659 0002077 191.2588 212.1673  1.00271590  5109
COSMOS 2584 [GLONASS-K2]
1 63130U 25042A   26183.15651315 -.00000011  00000+0  00000+0 0  9994
2 63130  65.0933  72.2932 0006178 224.7421 135.2742  2.13103981 10362
NAVSTAR 84 (USA 545)    
1 64202U 25116A   26182.80037729 -.00000064  00000+0  00000+0 0  9993
2 64202  55.2438  30.5429 0008121 344.2074 199.7112  2.00575100  8167
COSMOS 2596 [GLONASS-K1]
1 65590U 25206B   26178.83593120 -.00000080  00000+0  00000+0 0  9992
2 65590  64.6279 314.6147 0011061 310.3600  91.2409  2.13101038  6144
GSAT0233 (GALILEO 33)   
1 67160U 25302A   26183.47833068 -.00000010  00000+0  00000+0 0  9991
2 67160  54.3433 101.6961 0000923 191.5649 349.5257  1.70474199  3388
GSAT0234 (GALILEO 34)   
1 67162U 25302C   26182.60212447 -.00000015  00000+0  00000+0 0  9994
2 67162  54.3448 101.7199 0002558 311.1283 232.3172  1.70474235  3421
NAVSTAR 85 (USA 581)    
1 67588U 26017A   26182.15705621 -.00000025  00000+0  00000+0 0  9992
2 67588  55.0967  88.1946 0021295 258.4465 101.3419  2.00570850431898
NAVSTAR 86 (USA 585)    
1 68791U 26087A   26182.86557880  .00000069  00000+0  00000+0 0  9993
2 68791  54.9627 207.2074 0020607 106.6329 250.3869  2.00571676  1121
